{
    "week": 287,
    "satellites": [
        {
            "Name": "COSMOS 2485 (747)",
            "Line1": "1 39155U 13019A   24279.96012841  .00000046  00000+0  00000+0 0  9990",
            "Line2": "2 39155  65.0933  94.4400 0022308 226.4467 133.4011  2.13101861 89089",
            "SatelliteNumber": "39155",
            "Classification": "U",
            "LaunchYear": "13",
            "LaunchNumber": "019",
            "PieceOfLaunch": "A",
            "EpochYear": "24",
            "EpochDay": 279.96012841,
            "FirstDerivativeMeanMotion": 4.6e-07,
            "SecondDerivativeMeanMotion": "00000+0",
            "BSTAR": "00000+0",
            "SetNumber": "999",
            "Inclination": 65.0933,
            "RAAN": 94.44,
            "Eccentricity": 0.0022308,
            "ArgumentOfPerigee": 226.4467,
            "MeanAnomaly": 133.4011,
            "MeanMotion": 2.13101861,
            "RevolutionNumber": "8908"
        },
        {
            "Name": "COSMOS 2492 (754)",
            "Line1": "1 39620U 14012A   24280.38462337 -.00000048  00000+0  00000+0 0  9991",
            "Line2": "2 39620  65.6252 334.8885 0012758 309.0236  50.9379  2.13103258 82056",
            "SatelliteNumber": "39620",
            "Classification": "U",
            "LaunchYear": "14",
            "LaunchNumber": "012",
            "PieceOfLaunch": "A",
            "EpochYear": "24",
            "EpochDay": 280.38462337,
            "FirstDerivativeMeanMotion": -4.8e-07,
            "SecondDerivativeMeanMotion": "00000+0",
            "BSTAR": "00000+0",
            "SetNumber": "999",
            "Inclination": 65.6252,
            "RAAN": 334.8885,
            "Eccentricity": 0.0012758,
            "ArgumentOfPerigee": 309.0236,
            "MeanAnomaly": 50.9379,
            "MeanMotion": 2.13103258,
            "RevolutionNumber": "8205"
        },
        {
            "Name": "COSMOS 2500 (755)",
            "Line1": "1 40001U 14032A   24279.62402329 -.00000049  00000+0  00000+0 0  9999",
            "Line2": "2 40001  65.5626 334.7106 0008938 209.9730 150.0513  2.13105913 80254",
            "SatelliteNumber": "40001",
            "Classification": "U",
            "LaunchYear": "14",
            "LaunchNumber": "032",
            "PieceOfLaunch": "A",
            "EpochYear": "24",
            "EpochDay": 279.62402329,
            "FirstDerivativeMeanMotion": -4.9e-07,
            "SecondDerivativeMeanMotion": "00000+0",
            "BSTAR": "00000+0",
            "SetNumber": "999",
            "Inclination": 65.5626,
            "RAAN": 334.7106,
            "Eccentricity": 0.0008938,
            "ArgumentOfPerigee": 209.973,
            "MeanAnomaly": 150.0513,
            "MeanMotion": 2.13105913,
            "RevolutionNumber": "8025"
        },
        {
            "Name": "COSMOS 2501 (702K)",
            "Line1": "1 40315U 14075A   24279.87835810  .00000029  00000+0  00000+0 0  9993",
            "Line2": "2 40315  63.6197 211.8301 0020150 209.0965 150.8018  2.13101439 76653",
            "SatelliteNumber": "40315",
            "Classification": "U",
            "LaunchYear": "14",
            "LaunchNumber": "075",
            "PieceOfLaunch": "A",
            "EpochYear": "24",
            "EpochDay": 279.8783581,
            "FirstDerivativeMeanMotion": 2.9e-07,
            "SecondDerivativeMeanMotion": "00000+0",
            "BSTAR": "00000+0",
            "SetNumber": "999",
            "Inclination": 63.6197,
            "RAAN": 211.8301,
            "Eccentricity": 0.002015,
            "ArgumentOfPerigee": 209.0965,
            "MeanAnomaly": 150.8018,
            "MeanMotion": 2.13101439,
            "RevolutionNumber": "7665"
        },
        {
            "Name": "COSMOS 2514 (751)",
            "Line1": "1 41330U 16008A   24280.33050627 -.00000047  00000+0  00000+0 0  9998",
            "Line2": "2 41330  65.3562 334.1680 0012972 214.4947 145.4955  2.13102683 67436",
            "SatelliteNumber": "41330",
            "Classification": "U",
            "LaunchYear": "16",
            "LaunchNumber": "008",
            "PieceOfLaunch": "A",
            "EpochYear": "24",
            "EpochDay": 280.33050627,
            "FirstDerivativeMeanMotion": -4.7e-07,
            "SecondDerivativeMeanMotion": "00000+0",
            "BSTAR": "00000+0",
            "SetNumber": "999",
            "Inclination": 65.3562,
            "RAAN": 334.168,
            "Eccentricity": 0.0012972,
            "ArgumentOfPerigee": 214.4947,
            "MeanAnomaly": 145.4955,
            "MeanMotion": 2.13102683,
            "RevolutionNumber": "6743"
        },
        {
            "Name": "COSMOS 2522 (752)",
            "Line1": "1 42939U 17055A   24280.17032947  .00000031  00000+0  00000+0 0  9996",
            "Line2": "2 42939  64.0808 212.9741 0008557 239.4056 120.5201  2.13102027 54788",
            "SatelliteNumber": "42939",
            "Classification": "U",
            "LaunchYear": "17",
            "LaunchNumber": "055",
            "PieceOfLaunch": "A",
            "EpochYear": "24",
            "EpochDay": 280.17032947,
            "FirstDerivativeMeanMotion": 3.1e-07,
            "SecondDerivativeMeanMotion": "00000+0",
            "BSTAR": "00000+0",
            "SetNumber": "999",
            "Inclination": 64.0808,
            "RAAN": 212.9741,
            "Eccentricity": 0.0008557,
            "ArgumentOfPerigee": 239.4056,
            "MeanAnomaly": 120.5201,
            "MeanMotion": 2.13102027,
            "RevolutionNumber": "5478"
        },
        {
            "Name": "COSMOS 2527 (756)",
            "Line1": "1 43508U 18053A   24279.19125981  .00000044  00000+0  00000+0 0  9993",
            "Line2": "2 43508  65.2531  94.6406 0007520 213.5835 146.4045  2.13102366 49061",
            "SatelliteNumber": "43508",
            "Classification": "U",
            "LaunchYear": "18",
            "LaunchNumber": "053",
            "PieceOfLaunch": "A",
            "EpochYear": "24",
            "EpochDay": 279.19125981,
            "FirstDerivativeMeanMotion": 4.4e-07,
            "SecondDerivativeMeanMotion": "00000+0",
            "BSTAR": "00000+0",
            "SetNumber": "999",
            "Inclination": 65.2531,
            "RAAN": 94.6406,
            "Eccentricity": 0.000752,
            "ArgumentOfPerigee": 213.5835,
            "MeanAnomaly": 146.4045,
            "MeanMotion": 2.13102366,
            "RevolutionNumber": "4906"
        },
        {
            "Name": "COSMOS 2529 (757)",
            "Line1": "1 43687U 18086A   24279.75915103  .00000029  00000+0  00000+0 0  9995",
            "Line2": "2 43687  64.2966 213.5307 0009956 260.6744  99.2201  2.13102054 46081",
            "SatelliteNumber": "43687",
            "Classification": "U",
            "LaunchYear": "18",
            "LaunchNumber": "086",
            "PieceOfLaunch": "A",
            "EpochYear": "24",
            "EpochDay": 279.75915103,
            "FirstDerivativeMeanMotion": 2.9e-07,
            "SecondDerivativeMeanMotion": "00000+0",
            "BSTAR": "00000+0",
            "SetNumber": "999",
            "Inclination": 64.2966,
            "RAAN": 213.5307,
            "Eccentricity": 0.0009956,
            "ArgumentOfPerigee": 260.6744,
            "MeanAnomaly": 99.2201,
            "MeanMotion": 2.13102054,
            "RevolutionNumber": "4608"
        },
        {
            "Name": "COSMOS 2534 (758)",
            "Line1": "1 44299U 19030A   24280.22874767  .00000032  00000+0  00000+0 0  9993",
            "Line2": "2 44299  64.3696 213.4786 0011958 282.2013 212.1921  2.13102103 41722",
            "SatelliteNumber": "44299",
            "Classification": "U",
            "LaunchYear": "19",
            "LaunchNumber": "030",
            "PieceOfLaunch": "A",
            "EpochYear": "24",
            "EpochDay": 280.22874767,
            "FirstDerivativeMeanMotion": 3.2e-07,
            "SecondDerivativeMeanMotion": "00000+0",
            "BSTAR": "00000+0",
            "SetNumber": "999",
            "Inclination": 64.3696,
            "RAAN": 213.4786,
            "Eccentricity": 0.0011958,
            "ArgumentOfPerigee": 282.2013,
            "MeanAnomaly": 212.1921,
            "MeanMotion": 2.13102103,
            "RevolutionNumber": "4172"
        },
        {
            "Name": "COSMOS 2544 (759)",
            "Line1": "1 44850U 19088A   24279.60465358  .00000045  00000+0  00000+0 0  9995",
            "Line2": "2 44850  65.2403  94.4616 0011546 246.9406 112.9718  2.13102131 37510",
            "SatelliteNumber": "44850",
            "Classification": "U",
            "LaunchYear": "19",
            "LaunchNumber": "088",
            "PieceOfLaunch": "A",
            "EpochYear": "24",
            "EpochDay": 279.60465358,
            "FirstDerivativeMeanMotion": 4.5e-07,
            "SecondDerivativeMeanMotion": "00000+0",
            "BSTAR": "00000+0",
            "SetNumber": "999",
            "Inclination": 65.2403,
            "RAAN": 94.4616,
            "Eccentricity": 0.0011546,
            "ArgumentOfPerigee": 246.9406,
            "MeanAnomaly": 112.9718,
            "MeanMotion": 2.13102131,
            "RevolutionNumber": "3751"
        }
    ]
}